[{"OBJECT_NAME":"ONEWEB-0457","OBJECT_ID":"2022-012AB","EPOCH":"2026-05-25T04:24:23.211072","MEAN_MOTION":13.1037033,"ECCENTRICITY":0.0001856,"INCLINATION":87.8849,"RA_OF_ASC_NODE":40.8511,"ARG_OF_PERICENTER":93.138,"MEAN_ANOMALY":266.9959,"EPHEMERIS_TYPE":0,"CLASSIFICATION_TYPE":"U","NORAD_CAT_ID":51647,"ELEMENT_SET_NO":999,"REV_AT_EPOCH":20633,"BSTAR":-0.0015896,"MEAN_MOTION_DOT":-5.42e-06,"MEAN_MOTION_DDOT":0.0},{"OBJECT_NAME":"ONEWEB-0458","OBJECT_ID":"2022-012AC","EPOCH":"2026-05-25T03:05:43.745856","MEAN_MOTION":13.10374762,"ECCENTRICITY":0.0001989,"INCLINATION":87.8863,"RA_OF_ASC_NODE":40.8478,"ARG_OF_PERICENTER":78.4009,"MEAN_ANOMALY":281.7341,"EPHEMERIS_TYPE":0,"CLASSIFICATION_TYPE":"U","NORAD_CAT_ID":51648,"ELEMENT_SET_NO":999,"REV_AT_EPOCH":20628,"BSTAR":-0.0018365999999999999,"MEAN_MOTION_DOT":-6.28e-06,"MEAN_MOTION_DDOT":0.0},{"OBJECT_NAME":"ONEWEB-0461","OBJECT_ID":"2022-012AD","EPOCH":"2026-05-25T03:28:04.134720","MEAN_MOTION":13.17650899,"ECCENTRICITY":0.0001733,"INCLINATION":87.9162,"RA_OF_ASC_NODE":10.4376,"ARG_OF_PERICENTER":89.1004,"MEAN_ANOMALY":271.0326,"EPHEMERIS_TYPE":0,"CLASSIFICATION_TYPE":"U","NORAD_CAT_ID":51649,"ELEMENT_SET_NO":999,"REV_AT_EPOCH":21085,"BSTAR":4.5976e-05,"MEAN_MOTION_DOT":3.1e-07,"MEAN_MOTION_DDOT":0.0},{"OBJECT_NAME":"ONEWEB-0463","OBJECT_ID":"2022-012AE","EPOCH":"2026-05-25T03:01:21.335232","MEAN_MOTION":13.17649515,"ECCENTRICITY":0.0001788,"INCLINATION":87.9152,"RA_OF_ASC_NODE":10.4661,"ARG_OF_PERICENTER":89.098,"MEAN_ANOMALY":271.0357,"EPHEMERIS_TYPE":0,"CLASSIFICATION_TYPE":"U","NORAD_CAT_ID":51650,"ELEMENT_SET_NO":999,"REV_AT_EPOCH":21063,"BSTAR":1.7048e-05,"MEAN_MOTION_DOT":1.9e-07,"MEAN_MOTION_DDOT":0.0},{"OBJECT_NAME":"ONEWEB-0464","OBJECT_ID":"2022-012AF","EPOCH":"2026-05-25T03:00:57.214080","MEAN_MOTION":13.1037407,"ECCENTRICITY":0.0001895,"INCLINATION":87.8854,"RA_OF_ASC_NODE":40.8723,"ARG_OF_PERICENTER":71.6102,"MEAN_ANOMALY":288.5232,"EPHEMERIS_TYPE":0,"CLASSIFICATION_TYPE":"U","NORAD_CAT_ID":51651,"ELEMENT_SET_NO":999,"REV_AT_EPOCH":20630,"BSTAR":-0.0018031,"MEAN_MOTION_DOT":-6.17e-06,"MEAN_MOTION_DDOT":0.0},{"OBJECT_NAME":"ONEWEB-0468","OBJECT_ID":"2022-012AG","EPOCH":"2026-05-25T03:10:30.671616","MEAN_MOTION":13.1037828,"ECCENTRICITY":0.0001859,"INCLINATION":87.8857,"RA_OF_ASC_NODE":40.865,"ARG_OF_PERICENTER":68.2142,"MEAN_ANOMALY":291.9183,"EPHEMERIS_TYPE":0,"CLASSIFICATION_TYPE":"U","NORAD_CAT_ID":51652,"ELEMENT_SET_NO":999,"REV_AT_EPOCH":20628,"BSTAR":-0.0009803,"MEAN_MOTION_DOT":-3.3e-06,"MEAN_MOTION_DDOT":0.0},{"OBJECT_NAME":"ONEWEB-0473","OBJECT_ID":"2022-012AH","EPOCH":"2026-05-25T02:48:59.980032","MEAN_MOTION":13.1037177,"ECCENTRICITY":0.0001928,"INCLINATION":87.8852,"RA_OF_ASC_NODE":40.8695,"ARG_OF_PERICENTER":76.9223,"MEAN_ANOMALY":283.2119,"EPHEMERIS_TYPE":0,"CLASSIFICATION_TYPE":"U","NORAD_CAT_ID":51653,"ELEMENT_SET_NO":999,"REV_AT_EPOCH":20628,"BSTAR":-0.0017955,"MEAN_MOTION_DOT":-6.14e-06,"MEAN_MOTION_DDOT":0.0},{"OBJECT_NAME":"ONEWEB-0474","OBJECT_ID":"2022-012AJ","EPOCH":"2026-05-25T04:27:00.506592","MEAN_MOTION":13.10371072,"ECCENTRICITY":0.000195,"INCLINATION":87.8859,"RA_OF_ASC_NODE":40.8379,"ARG_OF_PERICENTER":70.9253,"MEAN_ANOMALY":289.2085,"EPHEMERIS_TYPE":0,"CLASSIFICATION_TYPE":"U","NORAD_CAT_ID":51654,"ELEMENT_SET_NO":999,"REV_AT_EPOCH":20628,"BSTAR":-0.0007945799999999999,"MEAN_MOTION_DOT":-2.65e-06,"MEAN_MOTION_DDOT":0.0},{"OBJECT_NAME":"ONEWEB-0475","OBJECT_ID":"2022-012AK","EPOCH":"2026-05-25T03:18:21.593088","MEAN_MOTION":13.17648992,"ECCENTRICITY":0.0002153,"INCLINATION":87.9153,"RA_OF_ASC_NODE":10.4565,"ARG_OF_PERICENTER":68.3097,"MEAN_ANOMALY":291.8263,"EPHEMERIS_TYPE":0,"CLASSIFICATION_TYPE":"U","NORAD_CAT_ID":51655,"ELEMENT_SET_NO":999,"REV_AT_EPOCH":21065,"BSTAR":0.00015432000000000003,"MEAN_MOTION_DOT":7.3e-07,"MEAN_MOTION_DDOT":0.0},{"OBJECT_NAME":"ONEWEB-0490","OBJECT_ID":"2022-138A","EPOCH":"2026-05-25T03:53:25.243008","MEAN_MOTION":13.19726843,"ECCENTRICITY":0.0001663,"INCLINATION":87.9159,"RA_OF_ASC_NODE":309.5553,"ARG_OF_PERICENTER":89.3613,"MEAN_ANOMALY":270.771,"EPHEMERIS_TYPE":0,"CLASSIFICATION_TYPE":"U","NORAD_CAT_ID":54113,"ELEMENT_SET_NO":999,"REV_AT_EPOCH":17379,"BSTAR":0.00032614,"MEAN_MOTION_DOT":1.44e-06,"MEAN_MOTION_DDOT":0.0},{"OBJECT_NAME":"ONEWEB-0492","OBJECT_ID":"2022-138B","EPOCH":"2026-05-25T04:29:48.562368","MEAN_MOTION":13.197299,"ECCENTRICITY":0.0001608,"INCLINATION":87.9149,"RA_OF_ASC_NODE":309.5538,"ARG_OF_PERICENTER":95.0942,"MEAN_ANOMALY":265.0374,"EPHEMERIS_TYPE":0,"CLASSIFICATION_TYPE":"U","NORAD_CAT_ID":54114,"ELEMENT_SET_NO":999,"REV_AT_EPOCH":17380,"BSTAR":-0.0019011,"MEAN_MOTION_DOT":-7.48e-06,"MEAN_MOTION_DDOT":0.0},{"OBJECT_NAME":"ONEWEB-0495","OBJECT_ID":"2022-138C","EPOCH":"2026-05-25T03:57:58.209984","MEAN_MOTION":13.19726532,"ECCENTRICITY":0.0001445,"INCLINATION":87.9151,"RA_OF_ASC_NODE":309.5605,"ARG_OF_PERICENTER":73.692,"MEAN_ANOMALY":286.4372,"EPHEMERIS_TYPE":0,"CLASSIFICATION_TYPE":"U","NORAD_CAT_ID":54115,"ELEMENT_SET_NO":999,"REV_AT_EPOCH":17378,"BSTAR":0.00027216,"MEAN_MOTION_DOT":1.22e-06,"MEAN_MOTION_DDOT":0.0},{"OBJECT_NAME":"ONEWEB-0497","OBJECT_ID":"2022-138D","EPOCH":"2026-05-25T04:16:09.918912","MEAN_MOTION":13.19726602,"ECCENTRICITY":0.0001751,"INCLINATION":87.9154,"RA_OF_ASC_NODE":309.5492,"ARG_OF_PERICENTER":92.3864,"MEAN_ANOMALY":267.7469,"EPHEMERIS_TYPE":0,"CLASSIFICATION_TYPE":"U","NORAD_CAT_ID":54116,"ELEMENT_SET_NO":999,"REV_AT_EPOCH":17377,"BSTAR":0.00016800000000000002,"MEAN_MOTION_DOT":8e-07,"MEAN_MOTION_DDOT":0.0},{"OBJECT_NAME":"ONEWEB-0499","OBJECT_ID":"2022-138E","EPOCH":"2026-05-25T03:52:17.890752","MEAN_MOTION":13.19724933,"ECCENTRICITY":0.0001772,"INCLINATION":87.9149,"RA_OF_ASC_NODE":309.5627,"ARG_OF_PERICENTER":85.3922,"MEAN_ANOMALY":274.7413,"EPHEMERIS_TYPE":0,"CLASSIFICATION_TYPE":"U","NORAD_CAT_ID":54117,"ELEMENT_SET_NO":999,"REV_AT_EPOCH":17378,"BSTAR":9.0141e-05,"MEAN_MOTION_DOT":4.9e-07,"MEAN_MOTION_DDOT":0.0},{"OBJECT_NAME":"ONEWEB-0500","OBJECT_ID":"2022-138F","EPOCH":"2026-05-25T03:55:41.552832","MEAN_MOTION":13.1972715,"ECCENTRICITY":0.0001785,"INCLINATION":87.9159,"RA_OF_ASC_NODE":309.5543,"ARG_OF_PERICENTER":96.2459,"MEAN_ANOMALY":263.8877,"EPHEMERIS_TYPE":0,"CLASSIFICATION_TYPE":"U","NORAD_CAT_ID":54118,"ELEMENT_SET_NO":999,"REV_AT_EPOCH":17379,"BSTAR":0.00019145999999999999,"MEAN_MOTION_DOT":9e-07,"MEAN_MOTION_DDOT":0.0},{"OBJECT_NAME":"ONEWEB-0501","OBJECT_ID":"2022-138G","EPOCH":"2026-05-25T04:38:55.470048","MEAN_MOTION":13.19725746,"ECCENTRICITY":0.0001635,"INCLINATION":87.9159,"RA_OF_ASC_NODE":309.5483,"ARG_OF_PERICENTER":83.9725,"MEAN_ANOMALY":276.1594,"EPHEMERIS_TYPE":0,"CLASSIFICATION_TYPE":"U","NORAD_CAT_ID":54119,"ELEMENT_SET_NO":999,"REV_AT_EPOCH":17377,"BSTAR":0.00014793,"MEAN_MOTION_DOT":7.2e-07,"MEAN_MOTION_DDOT":0.0},{"OBJECT_NAME":"ONEWEB-0502","OBJECT_ID":"2022-138H","EPOCH":"2026-05-25T04:18:25.464096","MEAN_MOTION":13.1972648,"ECCENTRICITY":0.0001801,"INCLINATION":87.9158,"RA_OF_ASC_NODE":309.5398,"ARG_OF_PERICENTER":85.0873,"MEAN_ANOMALY":275.0466,"EPHEMERIS_TYPE":0,"CLASSIFICATION_TYPE":"U","NORAD_CAT_ID":54120,"ELEMENT_SET_NO":999,"REV_AT_EPOCH":17379,"BSTAR":0.00023961,"MEAN_MOTION_DOT":1.09e-06,"MEAN_MOTION_DDOT":0.0},{"OBJECT_NAME":"ONEWEB-0503","OBJECT_ID":"2022-138J","EPOCH":"2026-05-25T00:24:10.058112","MEAN_MOTION":13.19726095,"ECCENTRICITY":0.0002063,"INCLINATION":87.916,"RA_OF_ASC_NODE":309.5773,"ARG_OF_PERICENTER":91.3503,"MEAN_ANOMALY":268.7866,"EPHEMERIS_TYPE":0,"CLASSIFICATION_TYPE":"U","NORAD_CAT_ID":54121,"ELEMENT_SET_NO":999,"REV_AT_EPOCH":17376,"BSTAR":0.00014342,"MEAN_MOTION_DOT":7e-07,"MEAN_MOTION_DDOT":0.0},{"OBJECT_NAME":"ONEWEB-0504","OBJECT_ID":"2022-138K","EPOCH":"2026-05-25T03:44:19.200192","MEAN_MOTION":13.19725782,"ECCENTRICITY":0.000182,"INCLINATION":87.9158,"RA_OF_ASC_NODE":309.5555,"ARG_OF_PERICENTER":85.7277,"MEAN_ANOMALY":274.4063,"EPHEMERIS_TYPE":0,"CLASSIFICATION_TYPE":"U","NORAD_CAT_ID":54122,"ELEMENT_SET_NO":999,"REV_AT_EPOCH":17379,"BSTAR":0.00016612,"MEAN_MOTION_DOT":7.9e-07,"MEAN_MOTION_DDOT":0.0},{"OBJECT_NAME":"ONEWEB-0505","OBJECT_ID":"2022-138L","EPOCH":"2026-05-25T03:39:46.776672","MEAN_MOTION":13.19725064,"ECCENTRICITY":0.000167,"INCLINATION":87.916,"RA_OF_ASC_NODE":309.5571,"ARG_OF_PERICENTER":78.856,"MEAN_ANOMALY":281.276,"EPHEMERIS_TYPE":0,"CLASSIFICATION_TYPE":"U","NORAD_CAT_ID":54123,"ELEMENT_SET_NO":999,"REV_AT_EPOCH":17377,"BSTAR":-4.1638e-05,"MEAN_MOTION_DOT":-4e-08,"MEAN_MOTION_DDOT":0.0},{"OBJECT_NAME":"ONEWEB-0506","OBJECT_ID":"2022-138M","EPOCH":"2026-05-24T23:25:02.008416","MEAN_MOTION":13.19725509,"ECCENTRICITY":0.0001707,"INCLINATION":87.916,"RA_OF_ASC_NODE":309.5892,"ARG_OF_PERICENTER":85.3244,"MEAN_ANOMALY":274.8083,"EPHEMERIS_TYPE":0,"CLASSIFICATION_TYPE":"U","NORAD_CAT_ID":54124,"ELEMENT_SET_NO":999,"REV_AT_EPOCH":17374,"BSTAR":-0.0001218,"MEAN_MOTION_DOT":-3.6e-07,"MEAN_MOTION_DDOT":0.0},{"OBJECT_NAME":"ONEWEB-0507","OBJECT_ID":"2022-138N","EPOCH":"2026-05-25T03:32:57.054048","MEAN_MOTION":13.19726303,"ECCENTRICITY":0.0001661,"INCLINATION":87.915,"RA_OF_ASC_NODE":309.5692,"ARG_OF_PERICENTER":88.832,"MEAN_ANOMALY":271.3003,"EPHEMERIS_TYPE":0,"CLASSIFICATION_TYPE":"U","NORAD_CAT_ID":54125,"ELEMENT_SET_NO":999,"REV_AT_EPOCH":17381,"BSTAR":-1.9751e-05,"MEAN_MOTION_DOT":5e-08,"MEAN_MOTION_DDOT":0.0},{"OBJECT_NAME":"ONEWEB-0508","OBJECT_ID":"2022-138P","EPOCH":"2026-05-25T03:28:23.522016","MEAN_MOTION":13.19726984,"ECCENTRICITY":0.0001427,"INCLINATION":87.9149,"RA_OF_ASC_NODE":309.5694,"ARG_OF_PERICENTER":83.9794,"MEAN_ANOMALY":276.1501,"EPHEMERIS_TYPE":0,"CLASSIFICATION_TYPE":"U","NORAD_CAT_ID":54126,"ELEMENT_SET_NO":999,"REV_AT_EPOCH":17379,"BSTAR":5.9014999999999997e-05,"MEAN_MOTION_DOT":3.7e-07,"MEAN_MOTION_DDOT":0.0}]